{"type":"FeatureCollection","name":"new-bedford-public-data-coverage","features":[{"type":"Feature","id":"nb-parcel-service-coverage-2025","properties":{"name":"New Bedford parcel feature-service coverage extent","sourceId":"nb-city-parcels-nonconforming-2025","epistemicClass":"RECONSTRUCTED","transformation":"EPSG:26986 service extent transformed to EPSG:4326"},"geometry":{"type":"Polygon","coordinates":[[[-70.97822185396994,41.59173087661107],[-70.89936742727312,41.591341382551654],[-70.8979279508375,41.74443397351879],[-70.97697134992906,41.74482440021413],[-70.97822185396994,41.59173087661107]]]}}]}